GPS BIIF-10 (PRN 08)    
1 40730U 15033A   26186.66915431 -.00000009  00000+0  00000+0 0  9992
2 40730  53.9683 266.3241 0115228  30.2796 330.4507  2.00555355 80369
GPS BIIF-11 (PRN 10)    
1 41019U 15062A   26187.22300778 -.00000054  00000+0  00000+0 0  9990
2 41019  56.9721  30.0783 0112493 230.9298 128.1143  2.00567056 78210
GPS BIIF-12 (PRN 32)    
1 41328U 16007A   26186.81623924 -.00000011  00000+0  00000+0 0  9991
2 41328  55.5343  88.7211 0096622 247.6354 111.3784  2.00575903 76210
COSMOS 2514 (751)       
1 41330U 16008A   26186.58632897 -.00000044  00000+0  00000+0 0  9994
2 41330  65.0096 312.3755 0011980 200.0779 159.8882  2.13102617 81013
COSMOS 2522 (752)       
1 42939U 17055A   26186.42400866  .00000103  00000+0  00000+0 0  9990
2 42939  64.0803 191.2636 0010926 240.7321 119.1846  2.13102028 68367
GSAT0206 (GALILEO 10)   
1 40890U 15045B   26184.88161184  .00000074  00000+0  00000+0 0  9993
2 40890  54.9411 221.1433 0001957 327.0241  33.0412  1.70473649 67326
GSAT0209 (GALILEO 12)   
1 41174U 15079A   26185.63643029  .00000000  00000+0  00000+0 0  9992
2 41174  55.8369 100.7834 0005067 348.6925  11.3144  1.70473787 65079
GSAT0208 (GALILEO 11)   
1 41175U 15079B   26182.92381336 -.00000013  00000+0  00000+0 0  9997
2 41175  55.8336 100.8547 0004614 354.4374   5.5610  1.70473736 65444
GSAT0211 (GALILEO 14)   
1 41549U 16030A   26185.39390706  .00000074  00000+0  00000+0 0  9991
2 41549  55.0914 221.2214 0003120 320.4697  39.5831  1.70473887 62967
GSAT0210 (GALILEO 13)   
1 41550U 16030B   26184.47800542  .00000074  00000+0  00000+0 0  9995
2 41550  55.0896 221.2446 0008960 258.8551 101.1239  1.70473811 62948
GSAT0207 (GALILEO 15)   
1 41859U 16069A   26186.51626226  .00000000  00000+0  00000+0 0  9990
2 41859  55.5088 100.5792 0004622 338.2486  21.7516  1.70473449 59715
GSAT0212 (GALILEO 16)   
1 41860U 16069B   26185.78306338  .00000000  00000+0  00000+0 0  9999
2 41860  55.5064 100.5945 0004449   2.8841 357.1371  1.70473848 59951
GSAT0213 (GALILEO 17)   
1 41861U 16069C   26179.11118849 -.00000034  00000+0  00000+0 0  9996
2 41861  55.5047 100.7870 0004537 315.9585  43.9839  1.70474290 59707
GSAT0214 (GALILEO 18)   
1 41862U 16069D   26186.29651378  .00000000  00000+0  00000+0 0  9995
2 41862  55.5073 100.5810 0003671 327.9107  32.0866  1.70473861 59959
GSAT0215 (GALILEO 19)   
1 43055U 17079A   26185.61298966  .00000074  00000+0  00000+0 0  9999
2 43055  55.0696 221.0270 0003550 263.9168  96.1170  1.70474500 53282
BEIDOU-3S IGSO-1S (C31) 
1 40549U 15019A   26183.80025122 -.00000190  00000+0  00000+0 0  9997
2 40549  49.1798 295.2769 0076860 219.1125 144.2493  1.00680073 41232
BEIDOU-3S M2S (C58)     
1 40748U 15037A   26186.57966338 -.00000059  00000+0  00000+0 0  9992
2 40748  54.8530 301.4135 0009147 257.7204 102.2021  1.86232493 74462
BEIDOU-3S M1S (C57)     
1 40749U 15037B   26185.17416965 -.00000058  00000+0  00000+0 0  9993
2 40749  54.8513 301.4491 0002995  63.1742 296.8797  1.86254939 74446
BEIDOU-3S IGSO-2S (C56) 
1 40938U 15053A   26186.69846175 -.00000108  00000+0  00000+0 0  9995
2 40938  49.1930 258.5626 0065790 192.9102 177.7258  1.00255372 39540
BEIDOU-2 IGSO-6 (C13)   
1 41434U 16021A   26177.11016981 -.00000145  00000+0  00000+0 0  9995
2 41434  60.2385  37.9495 0057558 231.0163 137.2672  1.00258926 37578
BEIDOU-2 G7 (C03)       
1 41586U 16037A   26187.31143631 -.00000339  00000+0  00000+0 0  9991
2 41586   1.7644  69.4575 0006564   5.4670  71.9792  1.00267153  7082
BEIDOU-3 M1 (C19)       
1 43001U 17069A   26186.92651645 -.00000039  00000+0  00000+0 0  9993
2 43001  56.7080  62.4682 0009542 327.1907  32.8161  1.86231416 58953
BEIDOU-3 M2 (C20)       
1 43002U 17069B   26186.86531067 -.00000039  00000+0  00000+0 0  9992
2 43002  56.7072  62.5056 0008590 354.6254   5.4316  1.86231041 58944
GSAT-15 (GAGAN/PRN 139) 
1 41028U 15065A   26187.09426944 -.00000244  00000+0  00000+0 0  9993
2 41028   0.0347 248.0608 0004026 198.5898 324.8627  1.00272315 38980
EUTELSAT 117 WEST B (W*)
1 41589U 16038B   26187.19513444  .00000003  00000+0  00000+0 0  9991
2 41589   0.0026 206.3691 0000094 299.3488  91.7035  1.00271390 36850
SES-15 (WAAS/PRN 133)   
1 42709U 17026A   26187.26398049  .00000075  00000+0  00000+0 0  9993
2 42709   0.0251 325.2778 0000518 130.5010 154.3501  1.00267402  7626
QZS-2 (QZSS/PRN 194)    
1 42738U 17028A   26186.44055433 -.00000105  00000+0  00000+0 0  9998
2 42738  39.3999 242.8847 0758397 269.4808  71.9203  1.00279241  7802
QZS-3 (QZSS/PRN 199)    
1 42917U 17048A   26187.24335286 -.00000334  00000+0  00000+0 0  9999
2 42917   0.0823 223.7891 0001949 242.0858  32.9239  1.00263319 32459
QZS-4 (QZSS/PRN 195)    
1 42965U 17062A   26186.31716735 -.00000308  00000+0  00000+0 0  9998
2 42965  40.0986 343.2563 0747050 268.3572 284.3863  1.00293782 31984
IRNSS-1E                
1 41241U 16003A   26186.56850072 -.00000299  00000+0  00000+0 0  9997
2 41241  33.2728  59.4834 0019163 178.9195   1.5806  1.00270145 38261
IRNSS-1G                
1 41469U 16027A   26186.91676595 -.00000321  00000+0  00000+0 0  9996
2 41469   5.2407  97.0429 0005820   7.6923 278.8170  1.00277901 37366
